{
  "type": "FeatureCollection",
  "features": [
    {
      "type": "Feature",
      "properties": {
        "norad_id": 35033,
        "name": "COSMOS 2251 DEB",
        "group": "cosmos-2251-debris",
        "lat": 62.70133949880257,
        "lon": -36.5108848984413,
        "alt_km": 726.2721630473743,
        "timestamp": "2025-12-12T09:49:09.127938+00:00",
        "meta_object_name": "COSMOS 2251 DEB",
        "meta_object_id": "1993-036AGW",
        "meta_epoch": "2025-12-09T20:04:28.770240",
        "meta_mean_motion": 14.50906436,
        "meta_eccentricity": 0.00144326,
        "meta_inclination": 74.0258,
        "meta_ra_of_asc_node": 182.0397,
        "meta_arg_of_pericenter": 288.5729,
        "meta_mean_anomaly": 71.3864,
        "meta_ephemeris_type": 0,
        "meta_classification_type": "U",
        "meta_norad_cat_id": 35033,
        "meta_element_set_no": 999,
        "meta_rev_at_epoch": 65885,
        "meta_bstar": 0.0010175317,
        "meta_mean_motion_dot": 3.996e-05,
        "meta_mean_motion_ddot": 0,
        "tle_line1": "1 35033U 93036AGW 25343.83644410  .00003996  00000+0  10175-2 0  9994",
        "tle_line2": "2 35033  74.0258 182.0397 0014432 288.5729  71.3864 14.50906436658856"
      },
      "geometry": {
        "type": "Point",
        "coordinates": [
          -36.5108848984413,
          62.70133949880257
        ]
      }
    },
    {
      "type": "Feature",
      "properties": {
        "norad_id": 35038,
        "name": "COSMOS 2251 DEB",
        "group": "cosmos-2251-debris",
        "lat": 64.44934904031065,
        "lon": -173.40096570137445,
        "alt_km": 790.4801923858668,
        "timestamp": "2025-12-12T09:49:09.127948+00:00",
        "meta_object_name": "COSMOS 2251 DEB",
        "meta_object_id": "1993-036AHB",
        "meta_epoch": "2025-12-09T21:12:51.178752",
        "meta_mean_motion": 14.25117767,
        "meta_eccentricity": 0.01138214,
        "meta_inclination": 74.1071,
        "meta_ra_of_asc_node": 47.7141,
        "meta_arg_of_pericenter": 32.4196,
        "meta_mean_anomaly": 86.2003,
        "meta_ephemeris_type": 0,
        "meta_classification_type": "U",
        "meta_norad_cat_id": 35038,
        "meta_element_set_no": 999,
        "meta_rev_at_epoch": 85528,
        "meta_bstar": 0.0019860831,
        "meta_mean_motion_dot": 4.964e-05,
        "meta_mean_motion_ddot": 0,
        "tle_line1": "1 35038U 93036AHB 25343.88392568  .00004964  00000+0  19861-2 0  9995",
        "tle_line2": "2 35038  74.1071  47.7141 0113821  32.4196  86.2003 14.25117767855284"
      },
      "geometry": {
        "type": "Point",
        "coordinates": [
          -173.40096570137445,
          64.44934904031065
        ]
      }
    },
    {
      "type": "Feature",
      "properties": {
        "norad_id": 35043,
        "name": "COSMOS 2251 DEB",
        "group": "cosmos-2251-debris",
        "lat": -62.04058291621246,
        "lon": -100.930628527203,
        "alt_km": 578.8527176776852,
        "timestamp": "2025-12-12T09:49:09.127958+00:00",
        "meta_object_name": "COSMOS 2251 DEB",
        "meta_object_id": "1993-036AHG",
        "meta_epoch": "2025-12-12T03:49:22.130688",
        "meta_mean_motion": 14.769144,
        "meta_eccentricity": 0.0096604,
        "meta_inclination": 73.951,
        "meta_ra_of_asc_node": 46.7198,
        "meta_arg_of_pericenter": 256.1813,
        "meta_mean_anomaly": 102.8598,
        "meta_ephemeris_type": 0,
        "meta_classification_type": "U",
        "meta_norad_cat_id": 35043,
        "meta_element_set_no": 999,
        "meta_rev_at_epoch": 67410,
        "meta_bstar": 0.0047771,
        "meta_mean_motion_dot": 0.00036451,
        "meta_mean_motion_ddot": 0,
        "tle_line1": "1 35043U 93036AHG 25346.15928392  .00036451  00000+0  47771-2 0  9991",
        "tle_line2": "2 35043  73.9510  46.7198 0096604 256.1813 102.8598 14.76914400674105"
      },
      "geometry": {
        "type": "Point",
        "coordinates": [
          -100.930628527203,
          -62.04058291621246
        ]
      }
    },
    {
      "type": "Feature",
      "properties": {
        "norad_id": 35045,
        "name": "COSMOS 2251 DEB",
        "group": "cosmos-2251-debris",
        "lat": 16.30779635799839,
        "lon": -131.61675550480848,
        "alt_km": 981.4228824419979,
        "timestamp": "2025-12-12T09:49:09.127968+00:00",
        "meta_object_name": "COSMOS 2251 DEB",
        "meta_object_id": "1993-036AHJ",
        "meta_epoch": "2025-12-11T21:01:34.845600",
        "meta_mean_motion": 14.00382084,
        "meta_eccentricity": 0.0183574,
        "meta_inclination": 73.7197,
        "meta_ra_of_asc_node": 54.2288,
        "meta_arg_of_pericenter": 296.3554,
        "meta_mean_anomaly": 61.8829,
        "meta_ephemeris_type": 0,
        "meta_classification_type": "U",
        "meta_norad_cat_id": 35045,
        "meta_element_set_no": 999,
        "meta_rev_at_epoch": 84631,
        "meta_bstar": 0.00094643,
        "meta_mean_motion_dot": 1.595e-05,
        "meta_mean_motion_ddot": 0,
        "tle_line1": "1 35045U 93036AHJ 25345.87609775  .00001595  00000+0  94643-3 0  9994",
        "tle_line2": "2 35045  73.7197  54.2288 0183574 296.3554  61.8829 14.00382084846310"
      },
      "geometry": {
        "type": "Point",
        "coordinates": [
          -131.61675550480848,
          16.30779635799839
        ]
      }
    },
    {
      "type": "Feature",
      "properties": {
        "norad_id": 35060,
        "name": "COSMOS 2251 DEB",
        "group": "cosmos-2251-debris",
        "lat": 21.223907256753538,
        "lon": -108.66862758915524,
        "alt_km": 744.9788205836458,
        "timestamp": "2025-12-12T09:49:09.127979+00:00",
        "meta_object_name": "COSMOS 2251 DEB",
        "meta_object_id": "1993-036AHP",
        "meta_epoch": "2025-11-28T02:37:07.839264",
        "meta_mean_motion": 14.41547968,
        "meta_eccentricity": 0.00179641,
        "meta_inclination": 74.0363,
        "meta_ra_of_asc_node": 271.4275,
        "meta_arg_of_pericenter": 359.5881,
        "meta_mean_anomaly": 0.5257,
        "meta_ephemeris_type": 0,
        "meta_classification_type": "U",
        "meta_norad_cat_id": 35060,
        "meta_element_set_no": 999,
        "meta_rev_at_epoch": 87031,
        "meta_bstar": 0.0004076845,
        "meta_mean_motion_dot": 1.301e-05,
        "meta_mean_motion_ddot": 0,
        "tle_line1": "1 35060U 93036AHP 25332.10911851  .00001301  00000+0  40768-3 0  9998",
        "tle_line2": "2 35060  74.0363 271.4275 0017964 359.5881   0.5257 14.41547968870310"
      },
      "geometry": {
        "type": "Point",
        "coordinates": [
          -108.66862758915524,
          21.223907256753538
        ]
      }
    },
    {
      "type": "Feature",
      "properties": {
        "norad_id": 35061,
        "name": "COSMOS 2251 DEB",
        "group": "cosmos-2251-debris",
        "lat": -52.37048978131464,
        "lon": 148.14404572553326,
        "alt_km": 702.1697583688074,
        "timestamp": "2025-12-12T09:49:09.127989+00:00",
        "meta_object_name": "COSMOS 2251 DEB",
        "meta_object_id": "1993-036AHQ",
        "meta_epoch": "2025-12-11T21:18:06.026400",
        "meta_mean_motion": 14.67814621,
        "meta_eccentricity": 0.0039076,
        "meta_inclination": 74.046,
        "meta_ra_of_asc_node": 307.3691,
        "meta_arg_of_pericenter": 58.491,
        "meta_mean_anomaly": 302.0067,
        "meta_ephemeris_type": 0,
        "meta_classification_type": "U",
        "meta_norad_cat_id": 35061,
        "meta_element_set_no": 999,
        "meta_rev_at_epoch": 88562,
        "meta_bstar": 0.0012324,
        "meta_mean_motion_dot": 7.091e-05,
        "meta_mean_motion_ddot": 0,
        "tle_line1": "1 35061U 93036AHQ 25345.88756975  .00007091  00000+0  12324-2 0  9990",
        "tle_line2": "2 35061  74.0460 307.3691 0039076  58.4910 302.0067 14.67814621885626"
      },
      "geometry": {
        "type": "Point",
        "coordinates": [
          148.14404572553326,
          -52.37048978131464
        ]
      }
    },
    {
      "type": "Feature",
      "properties": {
        "norad_id": 35062,
        "name": "COSMOS 2251 DEB",
        "group": "cosmos-2251-debris",
        "lat": -15.723949537426476,
        "lon": 89.22972337352174,
        "alt_km": 850.1812454872779,
        "timestamp": "2025-12-12T09:49:09.127999+00:00",
        "meta_object_name": "COSMOS 2251 DEB",
        "meta_object_id": "1993-036AHR",
        "meta_epoch": "2025-12-10T15:42:45.436320",
        "meta_mean_motion": 14.22906612,
        "meta_eccentricity": 0.01275957,
        "meta_inclination": 74.0784,
        "meta_ra_of_asc_node": 96.9836,
        "meta_arg_of_pericenter": 97.3041,
        "meta_mean_anomaly": 264.2628,
        "meta_ephemeris_type": 0,
        "meta_classification_type": "U",
        "meta_norad_cat_id": 35062,
        "meta_element_set_no": 999,
        "meta_rev_at_epoch": 85469,
        "meta_bstar": 0.0028656551,
        "meta_mean_motion_dot": 6.986e-05,
        "meta_mean_motion_ddot": 0,
        "tle_line1": "1 35062U 93036AHR 25344.65469255  .00006986  00000+0  28657-2 0  9995",
        "tle_line2": "2 35062  74.0784  96.9836 0127595  97.3041 264.2628 14.22906612854697"
      },
      "geometry": {
        "type": "Point",
        "coordinates": [
          89.22972337352174,
          -15.723949537426476
        ]
      }
    }
  ]
}